{
    "links": {
        "self": "http://www.neowsapp.com/rest/v1/neo/3761395?api_key=iIulBulltgU6a56xZRHN4H3l9WmuAYTsLGpBGhQ2"
    },
    "id": "3761395",
    "neo_reference_id": "3761395",
    "name": "(2016 UY5)",
    "designation": "2016 UY5",
    "nasa_jpl_url": "http://ssd.jpl.nasa.gov/sbdb.cgi?sstr=3761395",
    "absolute_magnitude_h": 27.1,
    "estimated_diameter": {
        "kilometers": {
            "estimated_diameter_min": 0.0101054342,
            "estimated_diameter_max": 0.0225964377
        },
        "meters": {
            "estimated_diameter_min": 10.1054341542,
            "estimated_diameter_max": 22.5964377109
        },
        "miles": {
            "estimated_diameter_min": 0.0062792237,
            "estimated_diameter_max": 0.0140407711
        },
        "feet": {
            "estimated_diameter_min": 33.1543125905,
            "estimated_diameter_max": 74.1352966996
        }
    },
    "is_potentially_hazardous_asteroid": false,
    "close_approach_data": [
        {
            "close_approach_date": "2014-09-07",
            "close_approach_date_full": "2014-Sep-07 16:32",
            "epoch_date_close_approach": 1410107520000,
            "relative_velocity": {
                "kilometers_per_second": "13.8880139573",
                "kilometers_per_hour": "49996.8502463516",
                "miles_per_hour": "31066.0984211289"
            },
            "miss_distance": {
                "astronomical": "0.314420052",
                "lunar": "122.309400228",
                "kilometers": "47036570.06448924",
                "miles": "29227169.356221912"
            },
            "orbiting_body": "Earth"
        },
        {
            "close_approach_date": "2016-10-22",
            "close_approach_date_full": "2016-Oct-22 01:55",
            "epoch_date_close_approach": 1477101300000,
            "relative_velocity": {
                "kilometers_per_second": "4.6034697551",
                "kilometers_per_hour": "16572.4911182179",
                "miles_per_hour": "10297.5014950949"
            },
            "miss_distance": {
                "astronomical": "0.0304956607",
                "lunar": "11.8628120123",
                "kilometers": "4562085.884962709",
                "miles": "2834748.7198710242"
            },
            "orbiting_body": "Earth"
        },
        {
            "close_approach_date": "2018-12-06",
            "close_approach_date_full": "2018-Dec-06 16:36",
            "epoch_date_close_approach": 1544114160000,
            "relative_velocity": {
                "kilometers_per_second": "13.5986157256",
                "kilometers_per_hour": "48955.0166122169",
                "miles_per_hour": "30418.74351663"
            },
            "miss_distance": {
                "astronomical": "0.304894677",
                "lunar": "118.604029353",
                "kilometers": "45611594.25353799",
                "miles": "28341730.445644662"
            },
            "orbiting_body": "Earth"
        }
    ],
    "orbital_data": {
        "orbit_id": "4",
        "orbit_determination_date": "2017-04-06 08:22:52",
        "first_observation_date": "2016-10-21",
        "last_observation_date": "2016-10-31",
        "data_arc_in_days": 10,
        "observations_used": 26,
        "orbit_uncertainty": "8",
        "minimum_orbit_intersection": ".0301319",
        "jupiter_tisserand_invariant": "4.254",
        "epoch_osculation": "2457684.5",
        "eccentricity": ".366748616912493",
        "semi_major_axis": "1.617406604607091",
        "inclination": "1.991720144294627",
        "ascending_node_longitude": "37.03728763592198",
        "orbital_period": "751.3239708943163",
        "perihelion_distance": "1.024224969382309",
        "perihelion_argument": "356.4013406639479",
        "aphelion_distance": "2.210588239831873",
        "perihelion_time": "2457687.513479939960",
        "mean_anomaly": "358.5560785754056",
        "mean_motion": ".4791541517988367",
        "equinox": "J2000",
        "orbit_class": {
            "orbit_class_type": "AMO",
            "orbit_class_description": "Near-Earth asteroid orbits similar to that of 1221 Amor",
            "orbit_class_range": "1.017 AU < q (perihelion) < 1.3 AU"
        }
    },
    "is_sentry_object": false
}